NORAD_CAT_ID,OBJECT_NAME,OBJECT_TYPE,EPOCH,MEAN_MOTION,ECCENTRICITY,INCLINATION,RA_OF_ASC_NODE,ARG_OF_PERICENTER,MEAN_ANOMALY,BSTAR,MEAN_MOTION_DOT,MEAN_MOTION_DDOT,TLE_LINE0,TLE_LINE1,TLE_LINE2,SEMIMAJOR_AXIS,PERIOD,APOGEE,PERIGEE,DECAYED
49747.0,STARLINK-3247,PAYLOAD,2023-10-22 16:44:14,15.08831218,0.0001549,53.2156,90.1768,100.0228,260.0939,5.1586e-06,-2.06e-06,0.0,0 STARLINK-3247,1 49747U 21115Z   23295.69738876 -.00000206  00000-0  51586-5 0  9995,2 49747  53.2156  90.1768 0001549 100.0228 260.0939 15.08831218104346,6917.907,95.438,540.844,538.701,0.0
49747.0,STARLINK-3247,PAYLOAD,2023-10-23 03:51:56,15.08837496,0.0001545,53.2155,88.0953,97.202,262.9147,-8.4722e-05,-1.636e-05,0.0,0 STARLINK-3247,1 49747U 21115Z   23296.16106951 -.00001636  00000-0 -84722-4 0  9997,2 49747  53.2155  88.0953 0001545  97.2020 262.9147 15.08837496104414,6917.888,95.438,540.822,538.684,0.0
49747.0,STARLINK-3247,PAYLOAD,2023-10-24 03:42:43,15.08846078,0.0001469,53.2159,83.6348,96.9994,263.1165,8.4389e-05,1.056e-05,0.0,0 STARLINK-3247,1 49747U 21115Z   23297.15466440  .00001056  00000-0  84389-4 0  9992,2 49747  53.2159  83.6348 0001469  96.9994 263.1165 15.08846078105676,6917.862,95.437,540.743,538.711,0.0
49747.0,STARLINK-3247,PAYLOAD,2023-10-24 10:04:16,15.08836854,0.0001505,53.2159,82.4455,97.7468,262.3695,0.00018322,2.629e-05,0.0,0 STARLINK-3247,1 49747U 21115Z   23297.41963001  .00002629  00000-0  18322-3 0  9996,2 49747  53.2159  82.4455 0001505  97.7468 262.3695 15.08836854105713,6917.89,95.438,540.796,538.714,0.0
49747.0,STARLINK-3247,PAYLOAD,2023-10-25 14:41:12,15.0888822,0.0001649,53.2177,77.0948,73.8161,286.3013,-0.00052787,-8.691e-05,0.0,0 STARLINK-3247,1 49747U 21115Z   23298.61195412 -.00008691  00000-0 -52787-3 0  9992,2 49747  53.2177  77.0948 0001649  73.8161 286.3013 15.08888220105897,6917.733,95.435,540.739,538.457,0.0
49747.0,STARLINK-3247,PAYLOAD,2023-10-26 12:56:36,15.08839997,0.0001357,53.2175,72.9318,83.3874,276.7273,9.5919e-05,1.239e-05,0.0,0 STARLINK-3247,1 49747U 21115Z   23299.53930966  .00001239  00000-0  95919-4 0  9999,2 49747  53.2175  72.9318 0001357  83.3874 276.7273 15.08839997106038,6917.88,95.438,540.684,538.807,0.0
49747.0,STARLINK-3247,PAYLOAD,2023-10-26 14:31:59,15.08841919,0.0001441,53.2174,72.6345,84.359,275.7566,9.7513e-05,1.264e-05,0.0,0 STARLINK-3247,1 49747U 21115Z   23299.60554842  .00001264  00000-0  97513-4 0  9992,2 49747  53.2174  72.6345 0001441  84.3590 275.7566 15.08841919104932,6917.875,95.437,540.736,538.743,0.0
49747.0,STARLINK-3247,PAYLOAD,2023-10-27 01:39:41,15.08844407,0.0001184,53.2173,70.5525,76.6768,283.4356,0.00012444,1.693e-05,0.0,0 STARLINK-3247,1 49747U 21115Z   23300.06922607  .00001693  00000-0  12444-3 0  9998,2 49747  53.2173  70.5525 0001184  76.6768 283.4356 15.08844407105000,6917.867,95.437,540.551,538.913,0.0
49747.0,STARLINK-3247,PAYLOAD,2023-10-27 15:58:08,15.0885241,0.0001626,53.2174,67.8766,91.6027,268.5151,4.2887e-05,3.95e-06,0.0,0 STARLINK-3247,1 49747U 21115Z   23300.66538098  .00000395  00000-0  42887-4 0  9994,2 49747  53.2174  67.8766 0001626  91.6027 268.5151 15.08852410106206,6917.842,95.437,540.832,538.583,0.0
49747.0,STARLINK-3247,PAYLOAD,2023-10-28 12:38:11,15.08824263,0.0001706,53.2158,64.0074,76.0619,284.0563,-0.00022437,-3.856e-05,0.0,0 STARLINK-3247,1 49747U 21115Z   23301.52651708 -.00003856  00000-0 -22437-3 0  9999,2 49747  53.2158  64.0074 0001706  76.0619 284.0563 15.08824263106331,6917.928,95.439,540.974,538.613,0.0
49747.0,STARLINK-3247,PAYLOAD,2023-10-28 14:13:34,15.08822084,0.0001377,53.2169,63.7143,81.9862,278.1286,3.6758e-05,2.97e-06,0.0,0 STARLINK-3247,1 49747U 21115Z   23301.59276278  .00000297  00000-0  36758-4 0  9997,2 49747  53.2169  63.7143 0001377  81.9862 278.1286 15.08822084105238,6917.935,95.439,540.753,538.848,0.0
49747.0,STARLINK-3247,PAYLOAD,2023-10-28 15:48:57,15.08830443,0.0001414,53.2174,63.4145,80.52,279.5952,-5.4143e-05,-1.149e-05,0.0,0 STARLINK-3247,1 49747U 21115Z   23301.65899957 -.00001149  00000-0 -54143-4 0  9996,2 49747  53.2174  63.4145 0001414  80.5200 279.5952 15.08830443105240,6917.91,95.438,540.753,538.796,0.0
49747.0,STARLINK-3247,PAYLOAD,2023-10-29 01:21:15,15.08844146,0.0001354,53.2173,61.6325,73.6118,286.5023,5.6433e-05,6.1e-06,0.0,0 STARLINK-3247,1 49747U 21115Z   23302.05642898  .00000610  00000-0  56433-4 0  9995,2 49747  53.2173  61.6325 0001354  73.6118 286.5023 15.08844146106415,6917.868,95.437,540.669,538.796,0.0
49747.0,STARLINK-3247,PAYLOAD,2023-10-29 12:28:54,15.08893019,0.0001532,53.2165,59.5504,66.125,293.9902,-0.0010954,-0.00017704,0.0,0 STARLINK-3247,1 49747U 21115Z   23302.52007206 -.00017704  00000-0 -10954-2 0  9995,2 49747  53.2165  59.5504 0001532  66.1250 293.9902 15.08893019106481,6917.718,95.434,540.643,538.524,0.0
49747.0,STARLINK-3247,PAYLOAD,2023-10-29 14:04:19,15.08866297,0.0001588,53.2162,59.2532,68.6864,291.4297,-0.00013168,-2.385e-05,0.0,0 STARLINK-3247,1 49747U 21115Z   23302.58633398 -.00002385  00000-0 -13168-3 0  9998,2 49747  53.2162  59.2532 0001588  68.6864 291.4297 15.08866297105381,6917.8,95.436,540.764,538.566,0.0
49747.0,STARLINK-3247,PAYLOAD,2023-10-29 17:15:06,15.08863047,0.0001318,53.2174,58.6563,76.5411,283.5728,0.00096515,0.00015115,0.0,0 STARLINK-3247,1 49747U 21115Z   23302.71882370  .00015115  00000-0  96515-3 0  9999,2 49747  53.2174  58.6563 0001318  76.5411 283.5728 15.08863047106515,6917.81,95.436,540.587,538.763,0.0
49747.0,STARLINK-3247,PAYLOAD,2023-10-30 12:19:44,15.08838761,0.0001429,53.2166,55.0898,74.1078,286.0071,0.0001084,1.438e-05,0.0,0 STARLINK-3247,1 49747U 21115Z   23303.51371108  .00001438  00000-0  10840-3 0  9990,2 49747  53.2166  55.0898 0001429  74.1078 286.0071 15.08838761106631,6917.884,95.438,540.738,538.761,0.0
49747.0,STARLINK-3247,PAYLOAD,2023-10-30 13:55:07,15.08842891,0.0001306,53.2167,54.7918,84.7511,275.363,0.00031142,4.672e-05,0.0,0 STARLINK-3247,1 49747U 21115Z   23303.57995046  .00004672  00000-0  31142-3 0  9990,2 49747  53.2167  54.7918 0001306  84.7511 275.3630 15.08842891105533,6917.872,95.437,540.64,538.833,0.0
49747.0,STARLINK-3247,PAYLOAD,2023-10-31 13:45:55,15.08836785,0.000153,53.2195,50.3301,110.5641,249.5515,0.0003593,5.434e-05,0.0,0 STARLINK-3247,1 49747U 21115Z   23304.57355874  .00005434  00000-0  35930-3 0  9996,2 49747  53.2195  50.3301 0001530 110.5641 249.5515 15.08836785106792,6917.89,95.438,540.814,538.697,0.0
49747.0,STARLINK-3247,PAYLOAD,2023-11-01 13:36:42,15.08851923,0.000135,53.2176,45.8721,88.2073,271.9074,0.00057186,8.828e-05,0.0,0 STARLINK-3247,1 49747U 21115Z   23305.56715708  .00008828  00000-0  57186-3 0  9999,2 49747  53.2176  45.8721 0001350  88.2073 271.9074 15.08851923105830,6917.844,95.437,540.643,538.775,0.0
49747.0,STARLINK-3247,PAYLOAD,2023-11-01 16:47:28,15.08860221,0.0001401,53.2176,45.277,87.8109,272.3043,0.00076386,0.00011896,0.0,0 STARLINK-3247,1 49747U 21115Z   23305.69963454  .00011896  00000-0  76386-3 0  9998,2 49747  53.2176  45.2770 0001401  87.8109 272.3043 15.08860221106967,6917.819,95.436,540.653,538.714,0.0
49747.0,STARLINK-3247,PAYLOAD,2023-11-02 11:52:06,15.08850519,0.000156,53.2184,41.7069,95.9575,264.1595,0.00045328,6.935e-05,0.0,0 STARLINK-3247,1 49747U 21115Z   23306.49451565  .00006935  00000-0  45328-3 0  9992,2 49747  53.2184  41.7069 0001560  95.9575 264.1595 15.08850519107085,6917.848,95.437,540.792,538.634,0.0
49747.0,STARLINK-3247,PAYLOAD,2023-11-02 13:27:29,15.08853938,0.0001566,53.2186,41.4089,97.4318,262.6853,0.00058434,9.028e-05,0.0,0 STARLINK-3247,1 49747U 21115Z   23306.56075463  .00009028  00000-0  58434-3 0  9997,2 49747  53.2186  41.4089 0001566  97.4318 262.6853 15.08853938105989,6917.838,95.437,540.786,538.619,0.0
49747.0,STARLINK-3247,PAYLOAD,2023-11-03 05:21:20,15.08844351,0.0002159,53.2184,38.4414,77.4114,282.712,0.00040548,6.172e-05,0.0,0 STARLINK-3247,1 49747U 21115Z   23307.22315821  .00006172  00000-0  40548-3 0  9990,2 49747  53.2184  38.4414 0002159  77.4114 282.7120 15.08844351107190,6917.867,95.437,541.226,538.239,0.0
49747.0,STARLINK-3247,PAYLOAD,2023-11-03 10:07:30,15.08835884,0.0001635,53.2177,37.5462,82.3599,277.7579,8.8402e-05,1.119e-05,0.0,0 STARLINK-3247,1 49747U 21115Z   23307.42187832  .00001119  00000-0  88402-4 0  9999,2 49747  53.2177  37.5462 0001635  82.3599 277.7579 15.08835884107222,6917.893,95.438,540.889,538.627,0.0
49747.0,STARLINK-3247,PAYLOAD,2023-11-03 13:18:16,15.08845481,0.0001586,53.2176,36.9523,80.0609,280.0562,0.00049631,7.621e-05,0.0,0 STARLINK-3247,1 49747U 21115Z   23307.55435696  .00007621  00000-0  49631-3 0  9991,2 49747  53.2176  36.9523 0001586  80.0609 280.0562 15.08845481106136,6917.864,95.437,540.826,538.631,0.0
49747.0,STARLINK-3247,PAYLOAD,2023-11-04 05:12:08,15.08834973,0.0001547,53.218,33.9794,81.1775,278.9392,0.00025765,3.814e-05,0.0,0 STARLINK-3247,1 49747U 21115Z   23308.21676193  .00003814  00000-0  25765-3 0  9996,2 49747  53.2180  33.9794 0001547  81.1775 278.9392 15.08834973107346,6917.896,95.438,540.831,538.691,0.0
49747.0,STARLINK-3247,PAYLOAD,2023-11-04 13:09:03,15.08844882,0.0001422,53.217,32.4924,80.6233,279.492,0.00028977,4.327e-05,0.0,0 STARLINK-3247,1 49747U 21115Z   23308.54795904  .00004327  00000-0  28977-3 0  9992,2 49747  53.2170  32.4924 0001422  80.6233 279.4920 15.08844882106284,6917.865,95.437,540.714,538.747,0.0
49747.0,STARLINK-3247,PAYLOAD,2023-11-05 11:24:27,15.08851376,0.0001611,53.217,28.3272,88.8817,271.236,0.00032657,4.915e-05,0.0,0 STARLINK-3247,1 49747U 21115Z   23309.47531654  .00004915  00000-0  32657-3 0  9998,2 49747  53.2170  28.3272 0001611  88.8817 271.2360 15.08851376107535,6917.846,95.437,540.825,538.596,0.0
49747.0,STARLINK-3247,PAYLOAD,2023-11-05 12:59:50,15.08860938,0.0001547,53.2174,28.0316,83.5766,276.5403,0.00047736,7.322e-05,0.0,0 STARLINK-3247,1 49747U 21115Z   23309.54155223  .00007322  00000-0  47736-3 0  9999,2 49747  53.2174  28.0316 0001547  83.5766 276.5403 15.08860938106436,6917.816,95.436,540.752,538.611,0.0
